NORAD_CAT_ID,OBJECT_NAME,OBJECT_TYPE,EPOCH,MEAN_MOTION,ECCENTRICITY,INCLINATION,RA_OF_ASC_NODE,ARG_OF_PERICENTER,MEAN_ANOMALY,BSTAR,MEAN_MOTION_DOT,MEAN_MOTION_DDOT,TLE_LINE0,TLE_LINE1,TLE_LINE2,SEMIMAJOR_AXIS,PERIOD,APOGEE,PERIGEE,DECAYED
54051.0,STARLINK-5195,PAYLOAD,2024-03-31 12:54:40,15.08842964,0.000159,53.2172,283.3855,77.6425,282.4745,0.00015378,2.16e-05,0.0,0 STARLINK-5195,1 54051U 22136A   24091.53797377  .00002160  00000-0  15378-3 0  9999,2 54051  53.2172 283.3855 0001590  77.6425 282.4745 15.08842964 79934,6917.871,95.437,540.836,538.636,0.0
54051.0,STARLINK-5195,PAYLOAD,2024-03-31 19:16:13,15.08844381,0.0001394,53.219,282.1951,82.458,277.657,9.2534e-05,1.185e-05,0.0,0 STARLINK-5195,1 54051U 22136A   24091.80293291  .00001185  00000-0  92534-4 0  9991,2 54051  53.2190 282.1951 0001394  82.4580 277.6570 15.08844381 79977,6917.867,95.437,540.696,538.768,0.0
54051.0,STARLINK-5195,PAYLOAD,2024-04-01 12:45:28,15.08836313,0.000149,53.2185,278.9238,85.599,274.5172,0.00031362,4.706e-05,0.0,0 STARLINK-5195,1 54051U 22136A   24092.53157690  .00004706  00000-0  31362-3 0  9997,2 54051  53.2185 278.9238 0001490  85.5990 274.5172 15.08836313 80565,6917.892,95.438,540.787,538.726,0.0
54051.0,STARLINK-5195,PAYLOAD,2024-04-02 12:36:15,15.08833511,0.0001568,53.2187,274.4634,93.7142,266.4029,2.1247e-05,5e-07,0.0,0 STARLINK-5195,1 54051U 22136A   24093.52518015  .00000050  00000-0  21247-4 0  9999,2 54051  53.2187 274.4634 0001568  93.7142 266.4029 15.08833511 80719,6917.9,95.438,540.85,538.68,0.0
54051.0,STARLINK-5195,PAYLOAD,2024-04-02 18:57:48,15.08832679,0.0001381,53.2189,273.2751,95.2673,264.8477,1.49e-05,-5.1e-07,0.0,0 STARLINK-5195,1 54051U 22136A   24093.79014143 -.00000051  00000-0  14900-4 0  9991,2 54051  53.2189 273.2751 0001381  95.2673 264.8477 15.08832679 80271,6917.903,95.438,540.723,538.812,0.0
54051.0,STARLINK-5195,PAYLOAD,2024-04-03 12:27:02,15.0883533,0.0001311,53.2189,270.0045,106.8531,253.2605,0.00011817,1.593e-05,0.0,0 STARLINK-5195,1 54051U 22136A   24094.51877785  .00001593  00000-0  11817-3 0  9995,2 54051  53.2189 270.0045 0001311 106.8531 253.2605 15.08835330 80381,6917.895,95.438,540.667,538.853,0.0
54051.0,STARLINK-5195,PAYLOAD,2024-04-03 20:23:55,15.08865174,0.0001287,53.2188,268.5141,87.0726,273.0414,0.00032246,4.851e-05,0.0,0 STARLINK-5195,1 54051U 22136A   24094.84995358  .00004851  00000-0  32246-3 0  9997,2 54051  53.2188 268.5141 0001287  87.0726 273.0414 15.08865174 80913,6917.803,95.436,540.559,538.778,0.0
54051.0,STARLINK-5195,PAYLOAD,2024-04-04 04:20:50,15.08876058,0.0001234,53.2179,267.0271,78.1826,281.9305,0.00034185,5.162e-05,0.0,0 STARLINK-5195,1 54051U 22136A   24095.18114048  .00005162  00000-0  34185-3 0  9994,2 54051  53.2179 267.0271 0001234  78.1826 281.9305 15.08876058 80960,6917.77,95.435,540.489,538.782,0.0
54051.0,STARLINK-5195,PAYLOAD,2024-04-04 20:14:46,15.08822324,0.0001366,53.218,264.055,80.1604,279.9543,-3.7854e-05,-8.9e-06,0.0,0 STARLINK-5195,1 54051U 22136A   24095.84358882 -.00000890  00000-0 -37854-4 0  9995,2 54051  53.2180 264.0550 0001366  80.1604 279.9543 15.08822324 81062,6917.934,95.439,540.744,538.854,0.0
54051.0,STARLINK-5195,PAYLOAD,2024-04-04 21:50:09,15.08823406,0.000137,53.218,263.7573,80.1695,279.9452,-3.0476e-05,-7.73e-06,0.0,0 STARLINK-5195,1 54051U 22136A   24095.90982851 -.00000773  00000-0 -30476-4 0  9994,2 54051  53.2180 263.7573 0001370  80.1695 279.9452 15.08823406 80596,6917.931,95.439,540.744,538.848,0.0
54051.0,STARLINK-5195,PAYLOAD,2024-04-05 04:11:41,15.08831394,0.0001408,53.2186,262.5687,81.8818,278.2334,-1.4173e-05,-5.13e-06,0.0,0 STARLINK-5195,1 54051U 22136A   24096.17478452 -.00000513  00000-0 -14173-4 0  9999,2 54051  53.2186 262.5687 0001408  81.8818 278.2334 15.08831394 81117,6917.907,95.438,540.746,538.798,0.0
54051.0,STARLINK-5195,PAYLOAD,2024-04-05 10:33:13,15.08831811,0.000141,53.2183,261.3792,80.8853,279.2299,-6.6757e-07,-2.99e-06,0.0,0 STARLINK-5195,1 54051U 22136A   24096.43974524 -.00000299  00000-0 -66757-6 0  9997,2 54051  53.2183 261.3792 0001410  80.8853 279.2299 15.08831811 80674,6917.905,95.438,540.746,538.795,0.0
54051.0,STARLINK-5195,PAYLOAD,2024-04-05 18:30:08,15.08846473,0.0001309,53.2177,259.8915,76.2423,283.8714,8.1266e-05,1.006e-05,0.0,0 STARLINK-5195,1 54051U 22136A   24096.77093463  .00001006  00000-0  81266-4 0  9993,2 54051  53.2177 259.8915 0001309  76.2423 283.8714 15.08846473 81208,6917.861,95.437,540.631,538.82,0.0
54051.0,STARLINK-5195,PAYLOAD,2024-04-06 04:02:26,15.08854124,0.0001507,53.2173,258.1071,75.6963,284.4197,-2.1051e-05,-6.23e-06,0.0,0 STARLINK-5195,1 54051U 22136A   24097.16836667 -.00000623  00000-0 -21051-4 0  9990,2 54051  53.2173 258.1071 0001507  75.6963 284.4197 15.08854124 81261,6917.837,95.437,540.745,538.66,0.0
54051.0,STARLINK-5195,PAYLOAD,2024-04-06 10:24:00,15.0884189,0.0001546,53.2168,256.9178,71.8289,288.2871,0.00042429,6.471e-05,0.0,0 STARLINK-5195,1 54051U 22136A   24097.43333403  .00006471  00000-0  42429-3 0  9996,2 54051  53.2168 256.9178 0001546  71.8289 288.2871 15.08841890 81303,6917.875,95.437,540.809,538.67,0.0
54051.0,STARLINK-5195,PAYLOAD,2024-04-06 19:56:19,15.08832798,0.0001675,53.2172,255.1332,75.7205,284.3973,0.00013331,1.834e-05,0.0,0 STARLINK-5195,1 54051U 22136A   24097.83078217  .00001834  00000-0  13331-3 0  9997,2 54051  53.2172 255.1332 0001675  75.7205 284.3973 15.08832798 81368,6917.902,95.438,540.926,538.609,0.0
54051.0,STARLINK-5195,PAYLOAD,2024-04-07 10:14:47,15.08838499,0.0001537,53.2155,252.4565,75.8617,284.2546,0.00014742,2.059e-05,0.0,0 STARLINK-5195,1 54051U 22136A   24098.42694206  .00002059  00000-0  14742-3 0  9992,2 54051  53.2155 252.4565 0001537  75.8617 284.2546 15.08838499 80977,6917.885,95.438,540.813,538.687,0.0
54051.0,STARLINK-5195,PAYLOAD,2024-04-08 19:37:53,15.08840272,0.0001743,53.2175,246.2123,86.9745,273.1447,0.00016065,2.27e-05,0.0,0 STARLINK-5195,1 54051U 22136A   24099.81798476  .00002270  00000-0  16065-3 0  9995,2 54051  53.2175 246.2123 0001743  86.9745 273.1447 15.08840272 81660,6917.88,95.438,540.95,538.539,0.0
54051.0,STARLINK-5195,PAYLOAD,2024-04-09 19:28:41,15.08837772,0.0001543,53.2198,241.7504,86.8734,273.2435,7.022e-05,8.3e-06,0.0,0 STARLINK-5195,1 54051U 22136A   24100.81158763  .00000830  00000-0  70220-4 0  9991,2 54051  53.2198 241.7504 0001543  86.8734 273.2435 15.08837772 81819,6917.887,95.438,540.82,538.685,0.0
54051.0,STARLINK-5195,PAYLOAD,2024-04-10 09:47:09,15.08838881,0.00019,53.2243,239.0756,90.1386,269.9824,9.9025e-05,1.288e-05,0.0,0 STARLINK-5195,1 54051U 22136A   24101.40774781  .00001288  00000-0  99025-4 0  9993,2 54051  53.2243 239.0756 0001900  90.1386 269.9824 15.08838881 81420,6917.884,95.438,541.063,538.434,0.0
54051.0,STARLINK-5195,PAYLOAD,2024-04-10 16:08:41,15.08839725,0.0001912,53.224,237.8866,90.4965,269.6247,9.0668e-05,1.155e-05,0.0,0 STARLINK-5195,1 54051U 22136A   24101.67270745  .00001155  00000-0  90668-4 0  9990,2 54051  53.2240 237.8866 0001912  90.4965 269.6247 15.08839725 81462,6917.881,95.438,541.069,538.424,0.0
54051.0,STARLINK-5195,PAYLOAD,2024-04-11 01:41:00,15.08842489,0.0001924,53.2248,236.1028,90.0855,270.0358,0.00010769,1.426e-05,0.0,0 STARLINK-5195,1 54051U 22136A   24102.07014605  .00001426  00000-0  10769-3 0  9990,2 54051  53.2248 236.1028 0001924  90.0855 270.0358 15.08842489 82000,6917.873,95.437,541.069,538.407,0.0
54051.0,STARLINK-5195,PAYLOAD,2024-04-11 14:24:05,15.08836807,0.0001784,53.2202,233.7259,98.2545,261.865,3.5289e-05,2.74e-06,0.0,0 STARLINK-5195,1 54051U 22136A   24102.60006865  .00000274  00000-0  35289-4 0  9993,2 54051  53.2202 233.7259 0001784  98.2545 261.8650 15.08836807 81604,6917.89,95.438,540.989,538.521,0.0
54051.0,STARLINK-5195,PAYLOAD,2024-04-12 12:39:30,15.08831599,0.0001746,53.2194,229.561,94.9747,265.1444,-1.1148e-05,-4.65e-06,0.0,0 STARLINK-5195,1 54051U 22136A   24103.52743745 -.00000465  00000-0 -11148-4 0  9992,2 54051  53.2194 229.5610 0001746  94.9747 265.1444 15.08831599 82223,6917.906,95.438,540.979,538.563,0.0
54051.0,STARLINK-5195,PAYLOAD,2024-04-12 14:14:53,15.08832091,0.0001916,53.2189,229.2643,95.2533,264.8678,2.116e-05,4.9e-07,0.0,0 STARLINK-5195,1 54051U 22136A   24103.59367715  .00000049  00000-0  21160-4 0  9999,2 54051  53.2189 229.2643 0001916  95.2533 264.8678 15.08832091 81756,6917.905,95.438,541.095,538.444,0.0
54051.0,STARLINK-5195,PAYLOAD,2024-04-13 12:30:17,15.08837508,0.0001654,53.2184,225.1007,87.3783,272.7398,0.00011438,1.533e-05,0.0,0 STARLINK-5195,1 54051U 22136A   24104.52103262  .00001533  00000-0  11438-3 0  9993,2 54051  53.2184 225.1007 0001654  87.3783 272.7398 15.08837508 82372,6917.888,95.438,540.897,538.609,0.0
54051.0,STARLINK-5195,PAYLOAD,2024-04-13 14:05:40,15.08839205,0.0001555,53.2181,224.8024,86.1272,273.9898,9.8786e-05,1.284e-05,0.0,0 STARLINK-5195,1 54051U 22136A   24104.58727187  .00001284  00000-0  98786-4 0  9992,2 54051  53.2181 224.8024 0001555  86.1272 273.9898 15.08839205 81906,6917.883,95.438,540.824,538.672,0.0
54051.0,STARLINK-5195,PAYLOAD,2024-04-13 15:41:03,15.08840695,0.0001489,53.2177,224.5047,85.6017,274.5145,0.00012927,1.77e-05,0.0,0 STARLINK-5195,1 54051U 22136A   24104.65351136  .00001770  00000-0  12927-3 0  9999,2 54051  53.2177 224.5047 0001489  85.6017 274.5145 15.08840695 81918,6917.878,95.438,540.773,538.713,0.0
54051.0,STARLINK-5195,PAYLOAD,2024-04-14 13:56:27,15.08847779,0.0001596,53.2174,220.3424,74.9876,285.1293,0.00031994,4.809e-05,0.0,0 STARLINK-5195,1 54051U 22136A   24105.58087131  .00004809  00000-0  31994-3 0  9994,2 54051  53.2174 220.3424 0001596  74.9876 285.1293 15.08847779 82532,6917.857,95.437,540.826,538.618,0.0
54051.0,STARLINK-5195,PAYLOAD,2024-04-15 12:11:50,15.08846335,0.0001353,53.217,216.177,91.1546,268.9601,0.00012582,1.715e-05,0.0,0 STARLINK-5195,1 54051U 22136A   24106.50822828  .00001715  00000-0  12582-3 0  9992,2 54051  53.2170 216.1770 0001353  91.1546 268.9601 15.08846335 82675,6917.861,95.437,540.662,538.79,0.0
